testGetExistingSequence,getDeclaredMethod,createMock,getSource,getCurrent,getSequence,getEffectiveConfiguration,isExpired,isServerSide,retrieveMAPs,exposeAs,getAddressingNamespace,createReference,getTo,getReplyTo,getReliableEndpoint,getServant,setUnattachedIdentifier,ObjectFactory,createRelatesToType,getDestination,getCorrelationID,getAddressingConstants,getNoneURI,getAddress,getExchange,getEndpoint,getEndpointInfo,createAnonymousReference,isGenericAddress,RMException,getProxy,getProtocolVariation,ExchangeImpl,getContextualPropertyKeys,getContextualProperty,createSequence,createSequenceResponse,awaitCurrent,setTarget,
METHOD_0,METHOD_1,METHOD_2,METHOD_3,METHOD_4,METHOD_5,METHOD_6,METHOD_7,METHOD_8,METHOD_9,METHOD_10,METHOD_11,METHOD_12,METHOD_13,METHOD_14,METHOD_15,METHOD_16,METHOD_17,METHOD_18,METHOD_19,METHOD_20,METHOD_21,METHOD_22,METHOD_23,METHOD_24,METHOD_25,METHOD_26,METHOD_27,METHOD_28,METHOD_29,METHOD_30,METHOD_31,METHOD_32,METHOD_33,METHOD_34,METHOD_35,METHOD_36,METHOD_37,METHOD_38,METHOD_39,

rm,RMManager,v200702,Identifier,inSid,Source,SourceSequence,sseq,addressing,AddressingProperties,seq,inSeqId,RMConfiguration,EndpointReferenceType,isServer,RMContextUtils,acksTo,RelatesToType,relatesTo,inMaps,RMUtils,Destination,destination,DestinationSequence,inSeq,maps,endpoint,Endpoint,ei,dest,MAPAggregator,DECOUPLED_DESTINATION,ContextUtils,i18n,Level,INFO,Proxy,ProtocolVariation,Exchange,exchange,CreateSequenceResponseType,createResponse,Servant,servant,appex,SecurityConstants,TOKEN,TOKEN_ID,
IDENT_0,IDENT_1,IDENT_2,IDENT_3,IDENT_4,IDENT_5,IDENT_6,IDENT_7,IDENT_8,IDENT_9,IDENT_10,IDENT_11,IDENT_12,IDENT_13,IDENT_14,IDENT_15,IDENT_16,IDENT_17,IDENT_18,IDENT_19,IDENT_20,IDENT_21,IDENT_22,IDENT_23,IDENT_24,IDENT_25,IDENT_26,IDENT_27,IDENT_28,IDENT_29,IDENT_30,IDENT_31,IDENT_32,IDENT_33,IDENT_34,IDENT_35,IDENT_36,IDENT_37,IDENT_38,IDENT_39,IDENT_40,IDENT_41,IDENT_42,IDENT_43,IDENT_44,IDENT_45,IDENT_46,IDENT_47,







"getSource","CREATE_SEQ_ANON_TARGET","ws-security","security.",
STRING_0,STRING_1,STRING_2,STRING_3,

























