testWithHdfsDefaultFs,setNumNodeManagers,parseInt,setJobHistoryAddress,setResourceManagerAddress,setResourceManagerHostname,setResourceManagerSchedulerAddress,setResourceManagerResourceTrackerAddress,setResourceManagerWebappAddress,setUseInJvmContainerExecutor,parseBoolean,setHdfsDefaultFs,setConfig,getHdfsDefaultFs,
METHOD_0,METHOD_1,METHOD_2,METHOD_3,METHOD_4,METHOD_5,METHOD_6,METHOD_7,METHOD_8,METHOD_9,METHOD_10,METHOD_11,METHOD_12,METHOD_13,

sakserv,minicluster,MRLocalCluster,mrLocalCluster,MRLocalClusterTest,propertyParser,ConfigVars,YARN_NUM_NODE_MANAGERS_KEY,MR_JOB_HISTORY_ADDRESS_KEY,YARN_RESOURCE_MANAGER_ADDRESS_KEY,YARN_RESOURCE_MANAGER_HOSTNAME_KEY,YARN_RESOURCE_MANAGER_SCHEDULER_ADDRESS_KEY,YARN_RESOURCE_MANAGER_RESOURCE_TRACKER_ADDRESS_KEY,YARN_RESOURCE_MANAGER_WEBAPP_ADDRESS_KEY,YARN_USE_IN_JVM_CONTAINER_EXECUTOR_KEY,hdfsDefaultFs,
IDENT_0,IDENT_1,IDENT_2,IDENT_3,IDENT_4,IDENT_5,IDENT_6,IDENT_7,IDENT_8,IDENT_9,IDENT_10,IDENT_11,IDENT_12,IDENT_13,IDENT_14,IDENT_15,







"hdfs://localhost:8020/",
STRING_0,

























